HULIANWANG DIGUI 13A    
1 66412U 25258A   25339.89924102  .00000588  00000+0  33228-3 0  9999
2 66412  50.0056 290.7730 0013174 333.7456  26.2788 14.22483467  3683
HULIANWANG DIGUI 13B    
1 66413U 25258B   25340.46970241  .00000680  00000+0  38060-3 0  9992
2 66413  50.0012 288.4452 0010925 335.6563  24.3832 14.21453011  3761
HULIANWANG DIGUI 13C    
1 66414U 25258C   25339.41221397  .00000638  00000+0  35500-3 0  9996
2 66414  50.0052 292.8676 0013740 331.0235  28.9914 14.22441770  3612
HULIANWANG DIGUI 13D    
1 66415U 25258D   25340.24899857  .00000584  00000+0  33183-3 0  9997
2 66415  50.0081 289.2904 0011796 338.5635  21.4782 14.22277403  3738
HULIANWANG DIGUI 13E    
1 66416U 25258E   25339.90230921  .00000714  00000+0  39076-3 0  9992
2 66416  50.0052 290.7863 0011195 340.1554  19.8921 14.22215324  3684
HULIANWANG DIGUI 13F    
1 66417U 25258F   25340.60358688  .00000626  00000+0  35323-3 0  9996
2 66417  50.0001 287.8136 0010224 341.4358  18.6180 14.21933133  3786
HULIANWANG DIGUI 13G    
1 66418U 25258G   25339.89629562  .00000560  00000+0  31844-3 0  9999
2 66418  50.0022 290.7431 0011665 336.1209  23.9161 14.22784746  3689
HULIANWANG DIGUI 13H    
1 66419U 25258H   25339.61378765  .00000146  00000+0  13378-3 0  9998
2 66419  50.0017 291.9103 0012058 334.7106  25.3215 14.23328519  3645
HULIANWANG DIGUI 13J    
1 66420U 25258J   25339.96364633  .00000536  00000+0  30679-3 0  9993
2 66420  50.0158 290.4806 0013322 343.9613  16.0876 14.22956918  3680
CZ-12 R/B               
1 66421U 25258K   25340.62294679  .00000236  00000+0  11927-3 0  9993
2 66421  49.9961 284.4905 0064526 227.4206 132.1259 14.42319758  3838
STARLINK-35617          
1 66422U 25259A   25340.58335648 -.00133226  00000+0 -32340-2 0  9991
2 66422  43.0006  83.5853 0001066 297.2915  19.4746 15.40737163  5299
STARLINK-35618          
1 66423U 25259B   25340.58335648 -.00099246  00000+0 -23970-2 0  9994
2 66423  43.0005  83.5548 0001187 267.4855  61.7047 15.40733112  5290
